{"type": "FeatureCollection", "features": [ {"type": "Feature", "properties": {"norad_id": 32225, "name": "FENGYUN 1C DEB", "group": "fengyun-1c-debris", "lat": 12.933740666686084, "lon": 31.989370032670173, "alt_km": 899.5487479869616, "timestamp": "2025-12-11T10:53:16.173696+00:00", "meta": {"OBJECT_NAME": "FENGYUN 1C DEB", "OBJECT_ID": "1999-025CVX", "EPOCH": "2025-12-10T21:13:47.563392", "MEAN_MOTION": 14.13042634, "ECCENTRICITY": 0.0071641, "INCLINATION": 99.0927, "RA_OF_ASC_NODE": 33.5192, "ARG_OF_PERICENTER": 211.7536, "MEAN_ANOMALY": 147.9305, "EPHEMERIS_TYPE": 0, "CLASSIFICATION_TYPE": "U", "NORAD_CAT_ID": 32225, "ELEMENT_SET_NO": 999, "REV_AT_EPOCH": 68090, "BSTAR": 0.00031798, "MEAN_MOTION_DOT": 5.62e-06, "MEAN_MOTION_DDOT": 0}, "tle": {"line1": "1 32225U 99025CVX 25344.88457828  .00000562  00000+0  31798-3 0  9990", "line2": "2 32225  99.0927  33.5192 0071641 211.7536 147.9305 14.13042634680909"}}, "geometry": {"type": "Point", "coordinates": [31.989370032670173, 12.933740666686084]}}, {"type": "Feature", "properties": {"norad_id": 32230, "name": "FENGYUN 1C DEB", "group": "fengyun-1c-debris", "lat": 6.851358721185177, "lon": 133.91048365771147, "alt_km": 705.5048034188176, "timestamp": "2025-12-11T10:53:16.173706+00:00", "meta": {"OBJECT_NAME": "FENGYUN 1C DEB", "OBJECT_ID": "1999-025CWC", "EPOCH": "2025-12-09T09:38:00.553056", "MEAN_MOTION": 14.55976953, "ECCENTRICITY": 0.0050751, "INCLINATION": 98.8713, "RA_OF_ASC_NODE": 132.8053, "ARG_OF_PERICENTER": 99.6578, "MEAN_ANOMALY": 316.9422, "EPHEMERIS_TYPE": 0, "CLASSIFICATION_TYPE": "U", "NORAD_CAT_ID": 32230, "ELEMENT_SET_NO": 999, "REV_AT_EPOCH": 60621, "BSTAR": 0.0042979317, "MEAN_MOTION_DOT": 0.00019231, "MEAN_MOTION_DDOT": 0}, "tle": {"line1": "1 32230U 99025CWC 25343.40139529  .00019231  00000+0  42979-2 0  9993", "line2": "2 32230  98.8713 132.8053 0050751  99.6578 316.9422 14.55976953606218"}}, "geometry": {"type": "Point", "coordinates": [133.91048365771147, 6.851358721185177]}}, {"type": "Feature", "properties": {"norad_id": 32234, "name": "FENGYUN 1C DEB", "group": "fengyun-1c-debris", "lat": 63.650475991565074, "lon": 177.76287694919375, "alt_km": 898.8236906645989, "timestamp": "2025-12-11T10:53:16.173717+00:00", "meta": {"OBJECT_NAME": "FENGYUN 1C DEB", "OBJECT_ID": "1999-025CWG", "EPOCH": "2025-12-02T12:59:39.185664", "MEAN_MOTION": 13.9406659, "ECCENTRICITY": 0.0137699, "INCLINATION": 98.5292, "RA_OF_ASC_NODE": 187.1676, "ARG_OF_PERICENTER": 4.214, "MEAN_ANOMALY": 356.0148, "EPHEMERIS_TYPE": 0, "CLASSIFICATION_TYPE": "U", "NORAD_CAT_ID": 32234, "ELEMENT_SET_NO": 999, "REV_AT_EPOCH": 93067, "BSTAR": 0.0016148587, "MEAN_MOTION_DOT": 2.273e-05, "MEAN_MOTION_DDOT": 0}, "tle": {"line1": "1 32234U 99025CWG 25336.54142576  .00002273  00000+0  16149-2 0  9998", "line2": "2 32234  98.5292 187.1676 0137699   4.2140 356.0148 13.94066590930678"}}, "geometry": {"type": "Point", "coordinates": [177.76287694919375, 63.650475991565074]}}, {"type": "Feature", "properties": {"norad_id": 32241, "name": "FENGYUN 1C DEB", "group": "fengyun-1c-debris", "lat": -58.98542124047234, "lon": 30.277557679184465, "alt_km": 770.3950618438412, "timestamp": "2025-12-11T10:53:16.173727+00:00", "meta": {"OBJECT_NAME": "FENGYUN 1C DEB", "OBJECT_ID": "1999-025CWP", "EPOCH": "2025-12-10T20:02:37.728096", "MEAN_MOTION": 14.28717235, "ECCENTRICITY": 0.0146317, "INCLINATION": 99.078, "RA_OF_ASC_NODE": 14.2114, "ARG_OF_PERICENTER": 228.9704, "MEAN_ANOMALY": 129.8752, "EPHEMERIS_TYPE": 0, "CLASSIFICATION_TYPE": "U", "NORAD_CAT_ID": 32241, "ELEMENT_SET_NO": 999, "REV_AT_EPOCH": 93796, "BSTAR": 0.0022286, "MEAN_MOTION_DOT": 6.245e-05, "MEAN_MOTION_DDOT": 0}, "tle": {"line1": "1 32241U 99025CWP 25344.83515889  .00006245  00000+0  22286-2 0  9990", "line2": "2 32241  99.0780  14.2114 0146317 228.9704 129.8752 14.28717235937962"}}, "geometry": {"type": "Point", "coordinates": [30.277557679184465, -58.98542124047234]}}, {"type": "Feature", "properties": {"norad_id": 32243, "name": "FENGYUN 1C DEB", "group": "fengyun-1c-debris", "lat": -7.083632781096458, "lon": 11.225876580976138, "alt_km": 1015.4677017599188, "timestamp": "2025-12-11T10:53:16.173737+00:00", "meta": {"OBJECT_NAME": "FENGYUN 1C DEB", "OBJECT_ID": "1999-025CWR", "EPOCH": "2025-12-10T21:14:43.688832", "MEAN_MOTION": 14.04575205, "ECCENTRICITY": 0.0269737, "INCLINATION": 98.2683, "RA_OF_ASC_NODE": 9.6719, "ARG_OF_PERICENTER": 128.7748, "MEAN_ANOMALY": 233.7854, "EPHEMERIS_TYPE": 0, "CLASSIFICATION_TYPE": "U", "NORAD_CAT_ID": 32243, "ELEMENT_SET_NO": 999, "REV_AT_EPOCH": 93562, "BSTAR": 0.0024447, "MEAN_MOTION_DOT": 5.373e-05, "MEAN_MOTION_DDOT": 0}, "tle": {"line1": "1 32243U 99025CWR 25344.88522788  .00005373  00000+0  24447-2 0  9995", "line2": "2 32243  98.2683   9.6719 0269737 128.7748 233.7854 14.04575205935625"}}, "geometry": {"type": "Point", "coordinates": [11.225876580976138, -7.083632781096458]}}, {"type": "Feature", "properties": {"norad_id": 32245, "name": "FENGYUN 1C DEB", "group": "fengyun-1c-debris", "lat": -69.55703454360511, "lon": -154.47229293426182, "alt_km": 608.7942064253648, "timestamp": "2025-12-11T10:53:16.173749+00:00", "meta": {"OBJECT_NAME": "FENGYUN 1C DEB", "OBJECT_ID": "1999-025CWT", "EPOCH": "2025-12-08T06:47:00.083040", "MEAN_MOTION": 14.76843452, "ECCENTRICITY": 0.00978135, "INCLINATION": 98.6545, "RA_OF_ASC_NODE": 178.0112, "ARG_OF_PERICENTER": 355.9473, "MEAN_ANOMALY": 4.0932, "EPHEMERIS_TYPE": 0, "CLASSIFICATION_TYPE": "U", "NORAD_CAT_ID": 32245, "ELEMENT_SET_NO": 999, "REV_AT_EPOCH": 66040, "BSTAR": 0.0014541087, "MEAN_MOTION_DOT": 0.00011, "MEAN_MOTION_DDOT": 0}, "tle": {"line1": "1 32245U 99025CWT 25342.28263985  .00011000  00000+0  14541-2 0  9998", "line2": "2 32245  98.6545 178.0112 0097813 355.9473   4.0932 14.76843452660407"}}, "geometry": {"type": "Point", "coordinates": [-154.47229293426182, -69.55703454360511]}}, {"type": "Feature", "properties": {"norad_id": 32304, "name": "FENGYUN 1C DEB", "group": "fengyun-1c-debris", "lat": 50.545766715330316, "lon": -71.73669828487954, "alt_km": 754.4168423653582, "timestamp": "2025-12-11T10:53:16.173759+00:00", "meta": {"OBJECT_NAME": "FENGYUN 1C DEB", "OBJECT_ID": "1999-025CWV", "EPOCH": "2025-12-03T02:19:20.087328", "MEAN_MOTION": 14.50391603, "ECCENTRICITY": 0.00495576, "INCLINATION": 99.3949, "RA_OF_ASC_NODE": 290.5539, "ARG_OF_PERICENTER": 255.7789, "MEAN_ANOMALY": 103.7894, "EPHEMERIS_TYPE": 0, "CLASSIFICATION_TYPE": "U", "NORAD_CAT_ID": 32304, "ELEMENT_SET_NO": 999, "REV_AT_EPOCH": 56133, "BSTAR": 0.0019806873, "MEAN_MOTION_DOT": 7.809e-05, "MEAN_MOTION_DDOT": 0}, "tle": {"line1": "1 32304U 99025CWV 25337.09676027  .00007809  00000+0  19807-2 0  9994", "line2": "2 32304  99.3949 290.5539 0049557 255.7789 103.7894 14.50391603561335"}}, "geometry": {"type": "Point", "coordinates": [-71.73669828487954, 50.545766715330316]}}, {"type": "Feature", "properties": {"norad_id": 32308, "name": "FENGYUN 1C DEB", "group": "fengyun-1c-debris", "lat": 15.727102282517674, "lon": -139.25798807405084, "alt_km": 887.9389436204538, "timestamp": "2025-12-11T10:53:16.173770+00:00", "meta": {"OBJECT_NAME": "FENGYUN 1C DEB", "OBJECT_ID": "1999-025CWZ", "EPOCH": "2025-12-06T13:56:17.681280", "MEAN_MOTION": 14.05453804, "ECCENTRICITY": 0.01091821, "INCLINATION": 97.7755, "RA_OF_ASC_NODE": 34.3534, "ARG_OF_PERICENTER": 78.3987, "MEAN_ANOMALY": 282.9416, "EPHEMERIS_TYPE": 0, "CLASSIFICATION_TYPE": "U", "NORAD_CAT_ID": 32308, "ELEMENT_SET_NO": 999, "REV_AT_EPOCH": 65325, "BSTAR": 0.0028488037, "MEAN_MOTION_DOT": 4.847e-05, "MEAN_MOTION_DDOT": 0}, "tle": {"line1": "1 32308U 99025CWZ 25340.58076020  .00004847  00000+0  28488-2 0  9997", "line2": "2 32308  97.7755  34.3534 0109182  78.3987 282.9416 14.05453804653250"}}, "geometry": {"type": "Point", "coordinates": [-139.25798807405084, 15.727102282517674]}}, {"type": "Feature", "properties": {"norad_id": 32314, "name": "FENGYUN 1C DEB", "group": "fengyun-1c-debris", "lat": 36.010861040488855, "lon": 83.8532444189877, "alt_km": 687.8676451610281, "timestamp": "2025-12-11T10:53:16.173781+00:00", "meta": {"OBJECT_NAME": "FENGYUN 1C DEB", "OBJECT_ID": "1999-025CXF", "EPOCH": "2025-12-09T13:16:04.145664", "MEAN_MOTION": 14.79358552, "ECCENTRICITY": 0.0149391, "INCLINATION": 98.8627, "RA_OF_ASC_NODE": 88.2704, "ARG_OF_PERICENTER": 167.7932, "MEAN_ANOMALY": 192.6962, "EPHEMERIS_TYPE": 0, "CLASSIFICATION_TYPE": "U", "NORAD_CAT_ID": 32314, "ELEMENT_SET_NO": 999, "REV_AT_EPOCH": 97383, "BSTAR": 0.0023179, "MEAN_MOTION_DOT": 0.00020854, "MEAN_MOTION_DDOT": 0}, "tle": {"line1": "1 32314U 99025CXF 25343.55282576  .00020854  00000+0  23179-2 0  9997", "line2": "2 32314  98.8627  88.2704 0149391 167.7932 192.6962 14.79358552973830"}}, "geometry": {"type": "Point", "coordinates": [83.8532444189877, 36.010861040488855]}}, {"type": "Feature", "properties": {"norad_id": 32315, "name": "FENGYUN 1C DEB", "group": "fengyun-1c-debris", "lat": -68.32438590517235, "lon": 157.17093145812572, "alt_km": 1187.713585427833, "timestamp": "2025-12-11T10:53:16.173792+00:00", "meta": {"OBJECT_NAME": "FENGYUN 1C DEB", "OBJECT_ID": "1999-025CXG", "EPOCH": "2025-11-20T16:04:27.676128", "MEAN_MOTION": 13.66155502, "ECCENTRICITY": 0.02289149, "INCLINATION": 100.8052, "RA_OF_ASC_NODE": 105.2905, "ARG_OF_PERICENTER": 168.6, "MEAN_ANOMALY": 192.0449, "EPHEMERIS_TYPE": 0, "CLASSIFICATION_TYPE": "U", "NORAD_CAT_ID": 32315, "ELEMENT_SET_NO": 999, "REV_AT_EPOCH": 60787, "BSTAR": 0.00024184327, "MEAN_MOTION_DOT": 1.85e-06, "MEAN_MOTION_DDOT": 0}, "tle": {"line1": "1 32315U 99025CXG 25324.66976477  .00000185  00000+0  24184-3 0  9992", "line2": "2 32315 100.8052 105.2905 0228914 168.6000 192.0449 13.66155502607872"}}, "geometry": {"type": "Point", "coordinates": [157.17093145812572, -68.32438590517235]}}]}